ELECTRON KICK STAGE R/B 
1 67074U 25297C   26004.96333338  .00497737  77230-4  19740-2 0  9992
2 67074  97.4778 158.6861 0158420 184.8849 175.0878 15.69901191  3400
STARLINK-36230          
1 67075U 25298A   26004.95354598  .00090756  00000+0  14588-2 0  9995
2 67075  69.9996 184.6491 0003636 275.5066  84.5706 15.52562081  3432
STARLINK-36240          
1 67076U 25298B   26004.91668981 -.00048492  00000+0 -78960-3 0  9993
2 67076  69.9993 184.7461 0003512 272.5487 243.5317 15.52542248  4704
STARLINK-36243          
1 67077U 25298C   26004.95285976  .00048471  00000+0  78497-3 0  9997
2 67077  69.9995 184.6461 0003290 271.1852  88.8958 15.52548896  3435
STARLINK-36236          
1 67078U 25298D   26004.95252062  .00076683  00000+0  12362-2 0  9992
2 67078  69.9995 184.6449 0003476 273.2920  86.7869 15.52539876  3433
STARLINK-36159          
1 67079U 25298E   26004.91668981  .00097193  00000+0  21979-2 0  9993
2 67079  69.9993 184.9335 0003298 273.2649  79.7223 15.42671969  4705
STARLINK-36158          
1 67080U 25298F   26004.95186782 -.00169041  00000+0 -28289-2 0  9998
2 67080  69.9994 184.6418 0003571 267.4069  92.6709 15.52268186  3438
STARLINK-35864          
1 67081U 25298G   26004.91668981 -.01988056  00000+0 -41047-1 0  9993
2 67081  69.9996 184.7396 0003620 283.0161 237.5878 15.48913806  4708
STARLINK-36035          
1 67082U 25298H   26004.91668981 -.01735798  00000+0 -40124-1 0  9992
2 67082  69.9997 184.7499 0003813 285.6263 224.4409 15.45766956  4703
STARLINK-36170          
1 67083U 25298J   26004.95080191  .00037145  00000+0  60316-3 0  9993
2 67083  69.9997 184.6377 0003414 271.5465  88.5331 15.52542620  3433
STARLINK-36166          
1 67084U 25298K   26004.95046035  .00091576  00000+0  14724-2 0  9992
2 67084  69.9996 184.6363 0003294 271.8260  88.2550 15.52552236  3434
STARLINK-35794          
1 67085U 25298L   26004.91668981  .00098732  00000+0  22352-2 0  9996
2 67085  69.9998 184.7757 0003757 271.5028 219.4960 15.42631044  4706
