CCSDS_OMM_VERS = 2.0
CREATION_DATE  = 
ORIGINATOR     = 

OBJECT_NAME    = ELECTRON KICK STAGE R/B
OBJECT_ID      = 2025-297C
CENTER_NAME    = EARTH
REF_FRAME      = TEME
TIME_SYSTEM    = UTC
MEAN_ELEMENT_THEORY = SGP/SGP4

EPOCH          = 2026-01-04T23:07:12.004032
MEAN_MOTION    = 15.69901191
ECCENTRICITY   = .01584208
INCLINATION    = 97.4778
RA_OF_ASC_NODE = 158.6861
ARG_OF_PERICENTER = 184.8849
MEAN_ANOMALY   = 175.0878

EPHEMERIS_TYPE = 0
CLASSIFICATION_TYPE = U
NORAD_CAT_ID   = 67074
ELEMENT_SET_NO = 999
REV_AT_EPOCH   = 340
BSTAR          = .19740348E-2
MEAN_MOTION_DOT = .497737E-2
MEAN_MOTION_DDOT = .77230351E-4

CCSDS_OMM_VERS = 2.0
CREATION_DATE  = 
ORIGINATOR     = 

OBJECT_NAME    = STARLINK-36230
OBJECT_ID      = 2025-298A
CENTER_NAME    = EARTH
REF_FRAME      = TEME
TIME_SYSTEM    = UTC
MEAN_ELEMENT_THEORY = SGP/SGP4

EPOCH          = 2026-01-04T22:53:06.372672
MEAN_MOTION    = 15.52562081
ECCENTRICITY   = .00036367
INCLINATION    = 69.9996
RA_OF_ASC_NODE = 184.6491
ARG_OF_PERICENTER = 275.5066
MEAN_ANOMALY   = 84.5706

EPHEMERIS_TYPE = 0
CLASSIFICATION_TYPE = U
NORAD_CAT_ID   = 67075
ELEMENT_SET_NO = 999
REV_AT_EPOCH   = 343
BSTAR          = .14588309E-2
MEAN_MOTION_DOT = .90756E-3
MEAN_MOTION_DDOT = 0

CCSDS_OMM_VERS = 2.0
CREATION_DATE  = 
ORIGINATOR     = 

OBJECT_NAME    = STARLINK-36240
OBJECT_ID      = 2025-298B
CENTER_NAME    = EARTH
REF_FRAME      = TEME
TIME_SYSTEM    = UTC
MEAN_ELEMENT_THEORY = SGP/SGP4

EPOCH          = 2026-01-04T22:00:01.999584
MEAN_MOTION    = 15.52542248
ECCENTRICITY   = .00035123
INCLINATION    = 69.9993
RA_OF_ASC_NODE = 184.7461
ARG_OF_PERICENTER = 272.5487
MEAN_ANOMALY   = 243.5317

EPHEMERIS_TYPE = 0
CLASSIFICATION_TYPE = U
NORAD_CAT_ID   = 67076
ELEMENT_SET_NO = 999
REV_AT_EPOCH   = 470
BSTAR          = -.78960082E-3
MEAN_MOTION_DOT = -.48492E-3
MEAN_MOTION_DDOT = 0

CCSDS_OMM_VERS = 2.0
CREATION_DATE  = 
ORIGINATOR     = 

OBJECT_NAME    = STARLINK-36243
OBJECT_ID      = 2025-298C
CENTER_NAME    = EARTH
REF_FRAME      = TEME
TIME_SYSTEM    = UTC
MEAN_ELEMENT_THEORY = SGP/SGP4

EPOCH          = 2026-01-04T22:52:07.083264
MEAN_MOTION    = 15.52548896
ECCENTRICITY   = .00032902
INCLINATION    = 69.9995
RA_OF_ASC_NODE = 184.6461
ARG_OF_PERICENTER = 271.1852
MEAN_ANOMALY   = 88.8958

EPHEMERIS_TYPE = 0
CLASSIFICATION_TYPE = U
NORAD_CAT_ID   = 67077
ELEMENT_SET_NO = 999
REV_AT_EPOCH   = 343
BSTAR          = .7849671E-3
MEAN_MOTION_DOT = .48471E-3
MEAN_MOTION_DDOT = 0

CCSDS_OMM_VERS = 2.0
CREATION_DATE  = 
ORIGINATOR     = 

OBJECT_NAME    = STARLINK-36236
OBJECT_ID      = 2025-298D
CENTER_NAME    = EARTH
REF_FRAME      = TEME
TIME_SYSTEM    = UTC
MEAN_ELEMENT_THEORY = SGP/SGP4

EPOCH          = 2026-01-04T22:51:37.781568
MEAN_MOTION    = 15.52539876
ECCENTRICITY   = .00034767
INCLINATION    = 69.9995
RA_OF_ASC_NODE = 184.6449
ARG_OF_PERICENTER = 273.2920
MEAN_ANOMALY   = 86.7869

EPHEMERIS_TYPE = 0
CLASSIFICATION_TYPE = U
NORAD_CAT_ID   = 67078
ELEMENT_SET_NO = 999
REV_AT_EPOCH   = 343
BSTAR          = .12362293E-2
MEAN_MOTION_DOT = .76683E-3
MEAN_MOTION_DDOT = 0

CCSDS_OMM_VERS = 2.0
CREATION_DATE  = 
ORIGINATOR     = 

OBJECT_NAME    = STARLINK-36159
OBJECT_ID      = 2025-298E
CENTER_NAME    = EARTH
REF_FRAME      = TEME
TIME_SYSTEM    = UTC
MEAN_ELEMENT_THEORY = SGP/SGP4

EPOCH          = 2026-01-04T22:00:01.999584
MEAN_MOTION    = 15.42671969
ECCENTRICITY   = .00032986
INCLINATION    = 69.9993
RA_OF_ASC_NODE = 184.9335
ARG_OF_PERICENTER = 273.2649
MEAN_ANOMALY   = 79.7223

EPHEMERIS_TYPE = 0
CLASSIFICATION_TYPE = U
NORAD_CAT_ID   = 67079
ELEMENT_SET_NO = 999
REV_AT_EPOCH   = 470
BSTAR          = .21979355E-2
MEAN_MOTION_DOT = .97193E-3
MEAN_MOTION_DDOT = 0

CCSDS_OMM_VERS = 2.0
CREATION_DATE  = 
ORIGINATOR     = 

OBJECT_NAME    = STARLINK-36158
OBJECT_ID      = 2025-298F
CENTER_NAME    = EARTH
REF_FRAME      = TEME
TIME_SYSTEM    = UTC
MEAN_ELEMENT_THEORY = SGP/SGP4

EPOCH          = 2026-01-04T22:50:41.379648
MEAN_MOTION    = 15.52268186
ECCENTRICITY   = .00035717
INCLINATION    = 69.9994
RA_OF_ASC_NODE = 184.6418
ARG_OF_PERICENTER = 267.4069
MEAN_ANOMALY   = 92.6709

EPHEMERIS_TYPE = 0
CLASSIFICATION_TYPE = U
NORAD_CAT_ID   = 67080
ELEMENT_SET_NO = 999
REV_AT_EPOCH   = 343
BSTAR          = -.28289085E-2
MEAN_MOTION_DOT = -.169041E-2
MEAN_MOTION_DDOT = 0

CCSDS_OMM_VERS = 2.0
CREATION_DATE  = 
ORIGINATOR     = 

OBJECT_NAME    = STARLINK-35864
OBJECT_ID      = 2025-298G
CENTER_NAME    = EARTH
REF_FRAME      = TEME
TIME_SYSTEM    = UTC
MEAN_ELEMENT_THEORY = SGP/SGP4

EPOCH          = 2026-01-04T22:00:01.999584
MEAN_MOTION    = 15.48913806
ECCENTRICITY   = .00036209
INCLINATION    = 69.9996
RA_OF_ASC_NODE = 184.7396
ARG_OF_PERICENTER = 283.0161
MEAN_ANOMALY   = 237.5878

EPHEMERIS_TYPE = 0
CLASSIFICATION_TYPE = U
NORAD_CAT_ID   = 67081
ELEMENT_SET_NO = 999
REV_AT_EPOCH   = 470
BSTAR          = -.41046702E-1
MEAN_MOTION_DOT = -.1988056E-1
MEAN_MOTION_DDOT = 0

CCSDS_OMM_VERS = 2.0
CREATION_DATE  = 
ORIGINATOR     = 

OBJECT_NAME    = STARLINK-36035
OBJECT_ID      = 2025-298H
CENTER_NAME    = EARTH
REF_FRAME      = TEME
TIME_SYSTEM    = UTC
MEAN_ELEMENT_THEORY = SGP/SGP4

EPOCH          = 2026-01-04T22:00:01.999584
MEAN_MOTION    = 15.45766956
ECCENTRICITY   = .00038131
INCLINATION    = 69.9997
RA_OF_ASC_NODE = 184.7499
ARG_OF_PERICENTER = 285.6263
MEAN_ANOMALY   = 224.4409

EPHEMERIS_TYPE = 0
CLASSIFICATION_TYPE = U
NORAD_CAT_ID   = 67082
ELEMENT_SET_NO = 999
REV_AT_EPOCH   = 470
BSTAR          = -.4012394E-1
MEAN_MOTION_DOT = -.1735798E-1
MEAN_MOTION_DDOT = 0

CCSDS_OMM_VERS = 2.0
CREATION_DATE  = 
ORIGINATOR     = 

OBJECT_NAME    = STARLINK-36170
OBJECT_ID      = 2025-298J
CENTER_NAME    = EARTH
REF_FRAME      = TEME
TIME_SYSTEM    = UTC
MEAN_ELEMENT_THEORY = SGP/SGP4

EPOCH          = 2026-01-04T22:49:09.285024
MEAN_MOTION    = 15.52542620
ECCENTRICITY   = .00034143
INCLINATION    = 69.9997
RA_OF_ASC_NODE = 184.6377
ARG_OF_PERICENTER = 271.5465
MEAN_ANOMALY   = 88.5331

EPHEMERIS_TYPE = 0
CLASSIFICATION_TYPE = U
NORAD_CAT_ID   = 67083
ELEMENT_SET_NO = 999
REV_AT_EPOCH   = 343
BSTAR          = .60315586E-3
MEAN_MOTION_DOT = .37145E-3
MEAN_MOTION_DDOT = 0

CCSDS_OMM_VERS = 2.0
CREATION_DATE  = 
ORIGINATOR     = 

OBJECT_NAME    = STARLINK-36166
OBJECT_ID      = 2025-298K
CENTER_NAME    = EARTH
REF_FRAME      = TEME
TIME_SYSTEM    = UTC
MEAN_ELEMENT_THEORY = SGP/SGP4

EPOCH          = 2026-01-04T22:48:39.774240
MEAN_MOTION    = 15.52552236
ECCENTRICITY   = .00032946
INCLINATION    = 69.9996
RA_OF_ASC_NODE = 184.6363
ARG_OF_PERICENTER = 271.8260
MEAN_ANOMALY   = 88.2550

EPHEMERIS_TYPE = 0
CLASSIFICATION_TYPE = U
NORAD_CAT_ID   = 67084
ELEMENT_SET_NO = 999
REV_AT_EPOCH   = 343
BSTAR          = .14724065E-2
MEAN_MOTION_DOT = .91576E-3
MEAN_MOTION_DDOT = 0

CCSDS_OMM_VERS = 2.0
CREATION_DATE  = 
ORIGINATOR     = 

OBJECT_NAME    = STARLINK-35794
OBJECT_ID      = 2025-298L
CENTER_NAME    = EARTH
REF_FRAME      = TEME
TIME_SYSTEM    = UTC
MEAN_ELEMENT_THEORY = SGP/SGP4

EPOCH          = 2026-01-04T22:00:01.999584
MEAN_MOTION    = 15.42631044
ECCENTRICITY   = .00037573
INCLINATION    = 69.9998
RA_OF_ASC_NODE = 184.7757
ARG_OF_PERICENTER = 271.5028
MEAN_ANOMALY   = 219.4960

EPHEMERIS_TYPE = 0
CLASSIFICATION_TYPE = U
NORAD_CAT_ID   = 67085
ELEMENT_SET_NO = 999
REV_AT_EPOCH   = 470
BSTAR          = .22352051E-2
MEAN_MOTION_DOT = .98732E-3
MEAN_MOTION_DDOT = 0

